SAUDISAT 1C             
1 27607U 02058C   22274.54596224  .00001157  00000+0  17810-3 0  9994
2 27607  64.5559 337.2092 0081643 274.1975  84.9800 14.76272092 64033
SAUDISAT 2              
1 28371U 04025F   22274.42816201 -.00000035  00000+0  28771-5 0  9991
2 28371  98.3887 231.4411 0026578 137.7959 222.5272 14.54604525968697
SAUDISAT 3              
1 31118U 07012B   22274.40347399  .00000333  00000+0  64444-4 0  9994
2 31118  97.9781 218.9321 0014222 214.0866 145.9427 14.69374639828665
PISAT                   
1 41784U 16059B   22274.55940442  .00000778  00000+0  15618-3 0  9990
2 41784  97.9057 313.7328 0031483 191.6146 168.4334 14.64016521321215
FLYING LAPTOP           
1 42831U 17042G   22274.50317082  .00000548  00000+0  59190-4 0  9999
2 42831  97.4102 122.7443 0014388  18.7438 341.4317 14.91955549283908
SALSAT                  
1 46495U 20068K   22274.43018014  .00003436  00000+0  24658-3 0  9995
2 46495  97.7371 215.8236 0014299 280.1040  79.8573 15.04934748110120
